From: horizons@ssd.jpl.nasa.gov (Horizons Ephemeris System)
Subject: [Horizons] SMALL BODY #C(500@10)_T(383P/Christensen) (1/1)
Date: March 1, 2021 at 1:23:11 PM PST

Automated mail xmit by MAIL_REQUEST, PID= 2301 Mon Mar  1 13:23:11 2021
++++++++++++++++++++++++++++++++ (part 1 of 1)  +++++++++++++++++++++++++++++++
*******************************************************************************
JPL/HORIZONS                  383P/Christensen             2021-Mar-01 13:23:10
Rec #:90001306 (+COV) Soln.date: 2019-Dec-08_14:19:23    # obs: 345 (2006-2019)

IAU76/J2000 helio. ecliptic osc. elements (au, days, deg., period=Julian yrs):

 EPOCH=  2454414.5 ! 2007-Nov-10.0000000 (TDB)    RMSW= n.a.
  EC= .6114021194352021   QR= 1.359039694864008   TP= 2453977.7264452749
  OM= 213.6402323008968   W= 128.0592822744795    IN= 11.86782224005089
  A= 3.497290548493845    MA= 65.82075171667046   ADIST= 5.635541402123683
  PER= 6.5404222250403    N= .150697654           ANGMOM= .025456546
  DAN= 3.5147             DDN= 1.59048            L= 342.3019507
  B= 9.318761             MOID= .39473301         TP= 2006-Aug-30.2264452749

Comet physical (GM= km^3/s^2; RAD= km):
  GM= n.a.                RAD= n.a.
  M1=  18.5     M2=  n.a.     k1=  8.     k2= n.a.     PHCOF= n.a.

COMET comments 
1: soln ref.= JPL#18, data arc: 2006-08-23 to 2019-11-15
2: k1=8.;
*******************************************************************************


*******************************************************************************
Ephemeris / MAIL_REQUEST Mon Mar  1 13:23:10 2021 Pasadena, USA  / Horizons
*******************************************************************************
Target body name: 383P/Christensen                {source: JPL#18}
Center body name: Sun (10)                        {source: DE431}
Center-site name: BODY CENTER
*******************************************************************************
Start time      : A.D. 1990-Jan-01 00:00:00.0000 TDB
Stop  time      : A.D. 2020-Dec-31 00:00:00.0000 TDB
Step-size       : 10080 minutes
*******************************************************************************
Center geodetic : 0.00000000,0.00000000,0.0000000 {E-lon(deg),Lat(deg),Alt(km)}
Center cylindric: 0.00000000,0.00000000,0.0000000 {E-lon(deg),Dxy(km),Dz(km)}
Center radii    : 696000.0 x 696000.0 x 696000.0 k{Equator, meridian, pole}    
Small perturbers: Yes                             {source: SB431-N16}
Output units    : AU-D
Output type     : GEOMETRIC cartesian states
Output format   : 6 (LT, range, and range-rate)
Reference frame : Ecliptic of J2000.0
*******************************************************************************
Initial IAU76/J2000 heliocentric ecliptic osculating elements (au, days, deg.):
 EPOCH=  2454414.5 ! 2007-Nov-10.0000000 (TDB)    RMSW= n.a.                  
  EC= .6114021194352021   QR= 1.359039694864008   TP= 2453977.7264452749      
  OM= 213.6402323008968   W= 128.0592822744795    IN= 11.86782224005089       
 Equivalent ICRF heliocentric equatorial cartesian coordinates (au, au/d):
  X=-1.722477140391713E+00  Y= 3.420237832471705E+00  Z= 6.189621162565609E-01
 VX=-8.047384833826401E-03 VY= 1.703109479670807E-03 VZ=-5.397424294363904E-04
Comet physical (GM= km^3/s^2; RAD= km):                                        
  GM= n.a.                RAD= n.a.                                           
  M1=  18.5     M2=  n.a.     k1=  8.     k2= n.a.     PHCOF= n.a.            
*******************************************************************************
           JDTDB,            Calendar Date (TDB),                     LT,                     RG,                     RR,
**************************************************************************************************************************
$$SOE
2457692.500000000, A.D. 2016-Oct-31 00:00:00.0000,  3.244797974580459E-02,  5.618193534108528E+00, -6.838883642008095E-04,
2457699.500000000, A.D. 2016-Nov-07 00:00:00.0000,  3.241952954071341E-02,  5.613267533798506E+00, -7.235464822701773E-04,
2457706.500000000, A.D. 2016-Nov-14 00:00:00.0000,  3.238947524097972E-02,  5.608063793110834E+00, -7.632432760796417E-04,
2457713.500000000, A.D. 2016-Nov-21 00:00:00.0000,  3.235781522038439E-02,  5.602582030474399E+00, -8.029818365353807E-04,
2457720.500000000, A.D. 2016-Nov-28 00:00:00.0000,  3.232454772860305E-02,  5.596821942829925E+00, -8.427652109519785E-04,
2457727.500000000, A.D. 2016-Dec-05 00:00:00.0000,  3.228967089295646E-02,  5.590783205933056E+00, -8.825964097852701E-04,
2457734.500000000, A.D. 2016-Dec-12 00:00:00.0000,  3.225318271843167E-02,  5.584465474358009E+00, -9.224785088147968E-04,
2457741.500000000, A.D. 2016-Dec-19 00:00:00.0000,  3.221508107812847E-02,  5.577868379843425E+00, -9.624150641473573E-04,
2457748.500000000, A.D. 2016-Dec-26 00:00:00.0000,  3.217536368099509E-02,  5.570991525705988E+00, -1.002410656211966E-03,
2457755.500000000, A.D. 2017-Jan-02 00:00:00.0000,  3.213402804851739E-02,  5.563834482804278E+00, -1.042469504982336E-03,
2457762.500000000, A.D. 2017-Jan-09 00:00:00.0000,  3.209107157847321E-02,  5.556396800577499E+00, -1.082593522075787E-03,
2457769.500000000, A.D. 2017-Jan-16 00:00:00.0000,  3.204649160757578E-02,  5.548678017891836E+00, -1.122784263606186E-03,
2457776.500000000, A.D. 2017-Jan-23 00:00:00.0000,  3.200028539085972E-02,  5.540677659471266E+00, -1.163044194910208E-03,
2457783.500000000, A.D. 2017-Jan-30 00:00:00.0000,  3.195245007351569E-02,  5.532395231020879E+00, -1.203376186720109E-03,
2457790.500000000, A.D. 2017-Feb-06 00:00:00.0000,  3.190298268360996E-02,  5.523830217966297E+00, -1.243783128470965E-03,
2457797.500000000, A.D. 2017-Feb-13 00:00:00.0000,  3.185188013408527E-02,  5.514982085800128E+00, -1.284267818866749E-03,
2457804.500000000, A.D. 2017-Feb-20 00:00:00.0000,  3.179913922694087E-02,  5.505850280805703E+00, -1.324832947007896E-03,
2457811.500000000, A.D. 2017-Feb-27 00:00:00.0000,  3.174475665762848E-02,  5.496434230818231E+00, -1.365481097061664E-03,
2457818.500000000, A.D. 2017-Mar-06 00:00:00.0000,  3.168872901865698E-02,  5.486733345848903E+00, -1.406214792393031E-03,
2457825.500000000, A.D. 2017-Mar-13 00:00:00.0000,  3.163105279866193E-02,  5.476747017923823E+00, -1.447036713348874E-03,
2457832.500000000, A.D. 2017-Mar-20 00:00:00.0000,  3.157172436480103E-02,  5.466474618035837E+00, -1.487950321433262E-03,
2457839.500000000, A.D. 2017-Mar-27 00:00:00.0000,  3.151073992216784E-02,  5.455915489117270E+00, -1.528960005863310E-03,
2457846.500000000, A.D. 2017-Apr-03 00:00:00.0000,  3.144809551662195E-02,  5.445068946529933E+00, -1.570068792978230E-03,
2457853.500000000, A.D. 2017-Apr-10 00:00:00.0000,  3.138378711545106E-02,  5.433934292031331E+00, -1.611277893474420E-03,
2457860.500000000, A.D. 2017-Apr-17 00:00:00.0000,  3.131781063137076E-02,  5.422510817930109E+00, -1.652589063556964E-03,
2457867.500000000, A.D. 2017-Apr-24 00:00:00.0000,  3.125016188654620E-02,  5.410797800856588E+00, -1.694004937077670E-03,
2457874.500000000, A.D. 2017-May-01 00:00:00.0000,  3.118083658827741E-02,  5.398794497552807E+00, -1.735528495612979E-03,
2457881.500000000, A.D. 2017-May-08 00:00:00.0000,  3.110983032079313E-02,  5.386500143451671E+00, -1.777162826774659E-03,
2457888.500000000, A.D. 2017-May-15 00:00:00.0000,  3.103713854251777E-02,  5.373913952203746E+00, -1.818911062065143E-03,
2457895.500000000, A.D. 2017-May-22 00:00:00.0000,  3.096275658468410E-02,  5.361035115437045E+00, -1.860776360500525E-03,
2457902.500000000, A.D. 2017-May-29 00:00:00.0000,  3.088667965032439E-02,  5.347862802582351E+00, -1.902761907239262E-03,
2457909.500000000, A.D. 2017-Jun-05 00:00:00.0000,  3.080890281231598E-02,  5.334396160534821E+00, -1.944870980829019E-03,
2457916.500000000, A.D. 2017-Jun-12 00:00:00.0000,  3.072942100402168E-02,  5.320634312033421E+00, -1.987107304462535E-03,
2457923.500000000, A.D. 2017-Jun-19 00:00:00.0000,  3.064822898687727E-02,  5.306576350048871E+00, -2.029475754147177E-03,
2457930.500000000, A.D. 2017-Jun-26 00:00:00.0000,  3.056532130947101E-02,  5.292221330698490E+00, -2.071981580825850E-03,
2457937.500000000, A.D. 2017-Jul-03 00:00:00.0000,  3.048069234608940E-02,  5.277568279920177E+00, -2.114627952084076E-03,
2457944.500000000, A.D. 2017-Jul-10 00:00:00.0000,  3.039433637008593E-02,  5.262616206175832E+00, -2.157417160723038E-03,
2457951.500000000, A.D. 2017-Jul-17 00:00:00.0000,  3.030624754548037E-02,  5.247364098996797E+00, -2.200352391720117E-03,
2457958.500000000, A.D. 2017-Jul-24 00:00:00.0000,  3.021641989300957E-02,  5.231810923105750E+00, -2.243437450156166E-03,
2457965.500000000, A.D. 2017-Jul-31 00:00:00.0000,  3.012484727498577E-02,  5.215955615795001E+00, -2.286676322991336E-03,
2457972.500000000, A.D. 2017-Aug-07 00:00:00.0000,  3.003152339187350E-02,  5.199797086333794E+00, -2.330073016089289E-03,
2457979.500000000, A.D. 2017-Aug-14 00:00:00.0000,  2.993644178276281E-02,  5.183334216050247E+00, -2.373631501162193E-03,
2457986.500000000, A.D. 2017-Aug-21 00:00:00.0000,  2.983959582734461E-02,  5.166565858673376E+00, -2.417355688331384E-03,
2457993.500000000, A.D. 2017-Aug-28 00:00:00.0000,  2.974097874863137E-02,  5.149490840804166E+00, -2.461249422874665E-03,
2458000.500000000, A.D. 2017-Sep-04 00:00:00.0000,  2.964058361378944E-02,  5.132107962059681E+00, -2.505316615669443E-03,
2458007.500000000, A.D. 2017-Sep-11 00:00:00.0000,  2.953840332214737E-02,  5.114415992996768E+00, -2.549561797564505E-03,
2458014.500000000, A.D. 2017-Sep-18 00:00:00.0000,  2.943443056575355E-02,  5.096413668282831E+00, -2.593990647757598E-03,
2458021.500000000, A.D. 2017-Sep-25 00:00:00.0000,  2.932865781172711E-02,  5.078099683639980E+00, -2.638608091050599E-03,
2458028.500000000, A.D. 2017-Oct-02 00:00:00.0000,  2.922107737644170E-02,  5.059472708689554E+00, -2.683416827131300E-03,
2458035.500000000, A.D. 2017-Oct-09 00:00:00.0000,  2.911168147533987E-02,  5.040531395577209E+00, -2.728419515123749E-03,
